{
"type": "FeatureCollection",
"name": "event_sites_4326",
"crs": { "type": "name", "properties": { "name": "urn:ogc:def:crs:OGC:1.3:CRS84" } },
"features": [
{ "type": "Feature", "properties": { "zone": "Methow Valley", "area": 2790 }, "geometry": { "type": "Polygon", "coordinates": [ [ [ -120.53312892, 48.69197027 ], [ -119.88430731, 48.57261391 ], [ -119.73938152, 48.04766624 ], [ -119.96234427, 48.01486408 ], [ -120.44840308, 48.26927696 ], [ -120.53312892, 48.69197027 ] ] ] } },
{ "type": "Feature", "properties": { "zone": "Deschutes", "area": 4627 }, "geometry": { "type": "Polygon", "coordinates": [ [ [ -121.7695058, 44.38820646 ], [ -121.10726927, 44.3897892 ], [ -121.09619508, 43.61393186 ], [ -121.78057999, 43.62194909 ], [ -121.7695058, 44.38820646 ] ] ] } },
{ "type": "Feature", "properties": { "zone": "Helena", "area": 379 }, "geometry": { "type": "Polygon", "coordinates": [ [ [ -112.13965192, 46.72717672 ], [ -111.90125681, 46.72868513 ], [ -111.89832272, 46.54031141 ], [ -112.13818487, 46.54333863 ], [ -112.13965192, 46.72717672 ] ] ] } },
{ "type": "Feature", "properties": { "zone": "Missoula", "area": 1006 }, "geometry": { "type": "Polygon", "coordinates": [ [ [ -114.16504114, 47.01932513 ], [ -113.82244279, 46.93499132 ], [ -113.74720551, 46.78800698 ], [ -113.92723758, 46.67473915 ], [ -114.1919116, 46.701466 ], [ -114.23490433, 46.91480483 ], [ -114.16504114, 47.01932513 ] ] ] } },
{ "type": "Feature", "properties": { "zone": "Duluth", "area": 1865 }, "geometry": { "type": "Polygon", "coordinates": [ [ [ -92.5206653, 46.91875475 ], [ -91.92864632, 46.89158872 ], [ -91.81598599, 46.63282468 ], [ -92.18047529, 46.54477444 ], [ -92.5714729, 46.61461912 ], [ -92.5206653, 46.91875475 ] ] ] } },
{ "type": "Feature", "properties": { "zone": "Spokane", "area": 974 }, "geometry": { "type": "Polygon", "coordinates": [ [ [ -117.64358145, 47.80901253 ], [ -117.263645, 47.84964267 ], [ -117.0652711, 47.69372102 ], [ -117.20984869, 47.54981473 ], [ -117.41999053, 47.52257533 ], [ -117.64358145, 47.80901253 ] ] ] } },
{ "type": "Feature", "properties": { "zone": "Truckee", "area": 261 }, "geometry": { "type": "Polygon", "coordinates": [ [ [ -120.29716815, 39.32935235 ], [ -120.25854684, 39.3821867 ], [ -120.08016462, 39.36844851 ], [ -120.03474626, 39.33332753 ], [ -120.04856924, 39.27933917 ], [ -120.12295002, 39.24264408 ], [ -120.31910465, 39.29360429 ], [ -120.29716815, 39.32935235 ] ] ] } },
{ "type": "Feature", "properties": { "zone": "Boise", "area": 4053 }, "geometry": { "type": "Polygon", "coordinates": [ [ [ -116.71391725, 43.83706454 ], [ -116.27013687, 43.93638254 ], [ -115.77030002, 43.83537975 ], [ -115.98751884, 43.38893347 ], [ -116.6368396, 43.37874846 ], [ -116.86340116, 43.55673919 ], [ -116.71391725, 43.83706454 ] ] ] } },
{ "type": "Feature", "properties": { "zone": "Los Angeles", "area": 7957 }, "geometry": { "type": "Polygon", "coordinates": [ [ [ -118.94305516, 33.99493658 ], [ -118.90686236, 34.09323584 ], [ -118.70780196, 34.2280033 ], [ -118.48863444, 34.35923577 ], [ -117.93367816, 34.28783086 ], [ -117.62106207, 34.04886224 ], [ -118.06681798, 33.51296586 ], [ -118.98220958, 33.71183683 ], [ -118.94305516, 33.99493658 ] ] ] } },
{ "type": "Feature", "properties": { "zone": "Calgary", "area": 2330 }, "geometry": { "type": "Polygon", "coordinates": [ [ [ -114.34745987, 51.14489209 ], [ -114.10245954, 51.31142931 ], [ -113.83233098, 51.2472462 ], [ -113.66480939, 51.03309335 ], [ -113.78626254, 50.78618413 ], [ -114.08361336, 50.76764623 ], [ -114.4458788, 50.87083525 ], [ -114.34745987, 51.14489209 ] ] ] } }
]
}
